{
"type": "FeatureCollection",
"name": "clip_zona_continental_simplificado",
"crs": { "type": "name", "properties": { "name": "urn:ogc:def:crs:EPSG::3116" } },
"features": [
{ "type": "Feature", "properties": { "fid": 1, "Shape_Leng": 97.811685585500001, "ADM0_ES": "Colombia", "ADM0_PCODE": "CO", "ADM0_REF": null, "ADM0ALT1ES": null, "ADM0ALT2ES": null, "date": "2020-04-15", "validOn": "2020-04-16", "validTo": null, "Shape_Le_1": 10839722.79, "ORIG_FID": 0, "Shape_Le_2": 10702674.126, "Shape_Area": 1140920965870.0 }, "geometry": { "type": "MultiPolygon", "coordinates": [ [ [ [ 423518.715495868236758, 671190.708573010400869 ], [ 459186.197106896084733, 718425.788632677751593 ], [ 481008.87136888463283, 785933.463152696727775 ], [ 517948.524083074647933, 811943.418180661741644 ], [ 566281.768494086922146, 815148.998326378874481 ], [ 620039.125211063539609, 903229.044579203124158 ], [ 589348.024717891355976, 956099.934861735440791 ], [ 612438.13112953689415, 1006562.504071482806467 ], [ 589394.040551872574724, 1103399.864000270841643 ], [ 615047.412042191950604, 1139157.962214418221265 ], [ 596422.964246599003673, 1172246.696299055358395 ], [ 602913.544387605041265, 1206210.188695517834276 ], [ 552326.822453676024452, 1291143.126993140671402 ], [ 574307.089180031674914, 1359477.922079763375223 ], [ 623932.618485518498346, 1386529.78970405110158 ], [ 601175.164010130567476, 1429814.045616881223395 ], [ 611377.480913135106675, 1465201.308425805298612 ], [ 641293.168700051493943, 1479671.580700080376118 ], [ 666893.151997629902326, 1459013.658139735693112 ], [ 732727.787982448120601, 1500740.6559879751876 ], [ 760128.42455315112602, 1543601.006237531080842 ], [ 794503.795290717273019, 1563944.104778395965695 ], [ 804626.147852830239572, 1591364.866625351132825 ], [ 792750.747136874473654, 1620359.767527205869555 ], [ 820747.27369031670969, 1676555.529557303525507 ], [ 901636.527901887195185, 1743382.265819977968931 ], [ 955099.658431907533668, 1733889.524493729230016 ], [ 994052.857537655858323, 1773551.606750356964767 ], [ 1074413.650945405242965, 1764354.740580391371623 ], [ 1179443.433923414209858, 1826895.163936541415751 ], [ 1190762.351700420491397, 1865421.209608900593594 ], [ 1253945.916887846076861, 1896703.900902004446834 ], [ 1322108.774588529486209, 1878756.982091609854251 ], [ 1348184.911864170338959, 1838834.114520319504663 ], [ 1345605.649375085020438, 1810184.967136445222422 ], [ 1312771.02417971775867, 1778079.558582329191267 ], [ 1247815.234386520227417, 1756899.562705718679354 ], [ 1219879.939135634806007, 1706404.019029896473512 ], [ 1194787.15000927192159, 1697270.238524894695729 ], [ 1157144.765203421469778, 1636182.136508314171806 ], [ 1134621.7367458792869, 1540295.552155497018248 ], [ 1166484.089650986017659, 1514186.411335240583867 ], [ 1180697.303973225876689, 1460753.539168778806925 ], [ 1211616.845159737858921, 1424112.33963041822426 ], [ 1205186.537926811492071, 1336920.613857082091272 ], [ 1227885.677971690660343, 1326873.15068141464144 ], [ 1239577.607454692712054, 1298063.990191725548357 ], [ 1376289.682476386893541, 1305694.270228614564985 ], [ 1448926.5284204618074, 1289976.780748200369999 ], [ 1524860.217713082209229, 1200497.501095177140087 ], [ 1695004.032526188762859, 1222302.09085397887975 ], [ 1754151.808578325202689, 1199685.492597829317674 ], [ 1766448.440886608557776, 1154613.646735219983384 ], [ 1721564.12176039093174, 1070714.146268345648423 ], [ 1720841.423910969635472, 1004869.652763296850026 ], [ 1736862.010858908062801, 939434.306893039960414 ], [ 1780575.231150444597006, 866266.98768620530609 ], [ 1742953.288811821490526, 819714.213522533769719 ], [ 1792107.937966657336801, 766036.616779914707877 ], [ 1833705.288855128223076, 642078.855555620510131 ], [ 1824676.009115561377257, 608247.407602672465146 ], [ 1777986.266366503434256, 594697.050096248160116 ], [ 1754766.458960961783305, 610970.926956966286525 ], [ 1746608.83945972751826, 677935.062652717111632 ], [ 1731391.962248102528974, 691316.373264941154048 ], [ 1662805.042021378409117, 657132.04284792591352 ], [ 1498317.253683942370117, 655961.466648290050216 ], [ 1498324.791682430077344, 640574.430806047748774 ], [ 1559131.760775515111163, 626503.793029326014221 ], [ 1579993.279737216187641, 562286.452260612510145 ], [ 1552387.943747506244108, 533589.384713743580505 ], [ 1476044.761982450261712, 528165.119945262558758 ], [ 1476103.836846573278308, 483021.022986573399976 ], [ 1520921.563070841366425, 450410.754070508119185 ], [ 1548673.11646356782876, 367888.446538181684446 ], [ 1482627.012194030918181, 8522.689557299097942 ], [ 1448867.117035891860723, -2235.056712458950642 ], [ 1407697.144675737945363, 36652.54898991027585 ], [ 1348833.111889878055081, 61368.816571808827575 ], [ 1408818.183232259005308, 179841.944611887651263 ], [ 1354095.108946134336293, 211450.420799320068909 ], [ 1297072.941597110824659, 197867.892256918508792 ], [ 1264153.774142353329808, 216039.449198673508363 ], [ 1215127.871999402297661, 190282.870625710376771 ], [ 1115248.126288919709623, 195763.133350861695362 ], [ 1082125.182728917337954, 221848.34703884049668 ], [ 1077429.926847872557119, 263573.436845031566918 ], [ 1037224.707027829717845, 288924.58054900256684 ], [ 1028996.69091656152159, 325580.350539006583858 ], [ 959500.536764808115549, 363861.045558284444269 ], [ 927264.342895380803384, 424260.121677877323236 ], [ 879433.093085876316763, 453579.120765932253562 ], [ 795837.864412476308644, 472586.607862582430243 ], [ 761504.114596253843047, 502167.210915670730174 ], [ 718628.145983659196645, 489082.020208065863699 ], [ 604127.297345673548989, 511720.093693264410831 ], [ 588978.87795652274508, 545382.628247572458349 ], [ 475015.647614437562879, 610798.370650210184976 ], [ 423518.715495868236758, 671190.708573010400869 ] ] ] ] } }
]
}
